{"type": "FeatureCollection", "features": [ {"type": "Feature", "properties": {"norad_id": 66426, "name": "STARLINK-35589", "group": "last-30-days", "lat": -7.520823682547307, "lon": 63.38260835984611, "alt_km": 444.75932876949264, "timestamp": "2025-12-08T15:42:48.535432+00:00", "meta": {"OBJECT_NAME": "STARLINK-35589", "OBJECT_ID": "2025-259E", "EPOCH": "2025-12-08T06:00:02.999808", "MEAN_MOTION": 15.40645521, "ECCENTRICITY": 0.00013167, "INCLINATION": 43.0005, "RA_OF_ASC_NODE": 73.8599, "ARG_OF_PERICENTER": 254.389, "MEAN_ANOMALY": 7.3401, "EPHEMERIS_TYPE": 0, "CLASSIFICATION_TYPE": "U", "NORAD_CAT_ID": 66426, "ELEMENT_SET_NO": 999, "REV_AT_EPOCH": 555, "BSTAR": 0.0017440527, "MEAN_MOTION_DOT": 0.00073118, "MEAN_MOTION_DDOT": 0}, "tle": {"line1": "1 66426U 25259E   25342.25003472  .00073118  00000+0  17441-2 0  9994", "line2": "2 66426  43.0005  73.8599 0001316 254.3890   7.3401 15.40645521  5554"}}, "geometry": {"type": "Point", "coordinates": [63.38260835984611, -7.520823682547307]}}, {"type": "Feature", "properties": {"norad_id": 66427, "name": "STARLINK-35611", "group": "last-30-days", "lat": 0.9402464762432199, "lon": 72.5049690066707, "alt_km": 443.4180693644412, "timestamp": "2025-12-08T15:42:48.535442+00:00", "meta": {"OBJECT_NAME": "STARLINK-35611", "OBJECT_ID": "2025-259F", "EPOCH": "2025-12-08T06:00:02.999808", "MEAN_MOTION": 15.40654524, "ECCENTRICITY": 0.00013526, "INCLINATION": 43.0006, "RA_OF_ASC_NODE": 73.8284, "ARG_OF_PERICENTER": 284.2186, "MEAN_ANOMALY": 349.9468, "EPHEMERIS_TYPE": 0, "CLASSIFICATION_TYPE": "U", "NORAD_CAT_ID": 66427, "ELEMENT_SET_NO": 999, "REV_AT_EPOCH": 555, "BSTAR": 0.0017003284, "MEAN_MOTION_DOT": 0.00071282, "MEAN_MOTION_DDOT": 0}, "tle": {"line1": "1 66427U 25259F   25342.25003472  .00071282  00000+0  17003-2 0  9999", "line2": "2 66427  43.0006  73.8284 0001352 284.2186 349.9468 15.40654524  5558"}}, "geometry": {"type": "Point", "coordinates": [72.5049690066707, 0.9402464762432199]}}, {"type": "Feature", "properties": {"norad_id": 66428, "name": "STARLINK-35610", "group": "last-30-days", "lat": 9.375304204775848, "lon": 81.67082954283127, "alt_km": 442.8336890283945, "timestamp": "2025-12-08T15:42:48.535455+00:00", "meta": {"OBJECT_NAME": "STARLINK-35610", "OBJECT_ID": "2025-259G", "EPOCH": "2025-12-08T06:00:02.999808", "MEAN_MOTION": 15.40718817, "ECCENTRICITY": 0.00017554, "INCLINATION": 43.0009, "RA_OF_ASC_NODE": 73.7983, "ARG_OF_PERICENTER": 259.7564, "MEAN_ANOMALY": 26.7791, "EPHEMERIS_TYPE": 0, "CLASSIFICATION_TYPE": "U", "NORAD_CAT_ID": 66428, "ELEMENT_SET_NO": 999, "REV_AT_EPOCH": 555, "BSTAR": 0.00061951863, "MEAN_MOTION_DOT": 0.00025679, "MEAN_MOTION_DDOT": 0}, "tle": {"line1": "1 66428U 25259G   25342.25003472  .00025679  00000+0  61952-3 0  9992", "line2": "2 66428  43.0009  73.7983 0001755 259.7564  26.7791 15.40718817  5556"}}, "geometry": {"type": "Point", "coordinates": [81.67082954283127, 9.375304204775848]}}, {"type": "Feature", "properties": {"norad_id": 66429, "name": "STARLINK-35533", "group": "last-30-days", "lat": 17.558410068650897, "lon": 91.2840605290151, "alt_km": 441.5405679953237, "timestamp": "2025-12-08T15:42:48.535466+00:00", "meta": {"OBJECT_NAME": "STARLINK-35533", "OBJECT_ID": "2025-259H", "EPOCH": "2025-12-08T06:00:02.999808", "MEAN_MOTION": 15.40648096, "ECCENTRICITY": 0.00013079, "INCLINATION": 43.0009, "RA_OF_ASC_NODE": 73.7672, "ARG_OF_PERICENTER": 273.2711, "MEAN_ANOMALY": 25.7724, "EPHEMERIS_TYPE": 0, "CLASSIFICATION_TYPE": "U", "NORAD_CAT_ID": 66429, "ELEMENT_SET_NO": 999, "REV_AT_EPOCH": 555, "BSTAR": 0.0019279848, "MEAN_MOTION_DOT": 0.00080952, "MEAN_MOTION_DDOT": 0}, "tle": {"line1": "1 66429U 25259H   25342.25003472  .00080952  00000+0  19280-2 0  9994", "line2": "2 66429  43.0009  73.7672 0001307 273.2711  25.7724 15.40648096  5556"}}, "geometry": {"type": "Point", "coordinates": [91.2840605290151, 17.558410068650897]}}, {"type": "Feature", "properties": {"norad_id": 66430, "name": "STARLINK-35470", "group": "last-30-days", "lat": 25.246189569187138, "lon": 101.8042423400177, "alt_km": 440.5799286025431, "timestamp": "2025-12-08T15:42:48.535476+00:00", "meta": {"OBJECT_NAME": "STARLINK-35470", "OBJECT_ID": "2025-259J", "EPOCH": "2025-12-08T06:00:02.999808", "MEAN_MOTION": 15.40654104, "ECCENTRICITY": 0.00018007, "INCLINATION": 43.0008, "RA_OF_ASC_NODE": 73.7378, "ARG_OF_PERICENTER": 273.1729, "MEAN_ANOMALY": 38.2933, "EPHEMERIS_TYPE": 0, "CLASSIFICATION_TYPE": "U", "NORAD_CAT_ID": 66430, "ELEMENT_SET_NO": 999, "REV_AT_EPOCH": 555, "BSTAR": 0.002649043, "MEAN_MOTION_DOT": 0.00111819, "MEAN_MOTION_DDOT": 0}, "tle": {"line1": "1 66430U 25259J   25342.25003472  .00111819  00000+0  26490-2 0  9994", "line2": "2 66430  43.0008  73.7378 0001800 273.1729  38.2933 15.40654104  5554"}}, "geometry": {"type": "Point", "coordinates": [101.8042423400177, 25.246189569187138]}}, {"type": "Feature", "properties": {"norad_id": 66431, "name": "STARLINK-35439", "group": "last-30-days", "lat": 32.07297600002198, "lon": 113.6297833641198, "alt_km": 439.49457781158344, "timestamp": "2025-12-08T15:42:48.535487+00:00", "meta": {"OBJECT_NAME": "STARLINK-35439", "OBJECT_ID": "2025-259K", "EPOCH": "2025-12-08T06:00:02.999808", "MEAN_MOTION": 15.40659063, "ECCENTRICITY": 0.00011571, "INCLINATION": 43.001, "RA_OF_ASC_NODE": 73.7064, "ARG_OF_PERICENTER": 254.9652, "MEAN_ANOMALY": 68.9221, "EPHEMERIS_TYPE": 0, "CLASSIFICATION_TYPE": "U", "NORAD_CAT_ID": 66431, "ELEMENT_SET_NO": 999, "REV_AT_EPOCH": 555, "BSTAR": 0.0026719906, "MEAN_MOTION_DOT": 0.00112823, "MEAN_MOTION_DDOT": 0}, "tle": {"line1": "1 66431U 25259K   25342.25003472  .00112823  00000+0  26720-2 0  9997", "line2": "2 66431  43.0010  73.7064 0001157 254.9652  68.9221 15.40659063  5556"}}, "geometry": {"type": "Point", "coordinates": [113.6297833641198, 32.07297600002198]}}, {"type": "Feature", "properties": {"norad_id": 66432, "name": "STARLINK-35446", "group": "last-30-days", "lat": 37.64345624036257, "lon": 127.205197430167, "alt_km": 438.6136130362347, "timestamp": "2025-12-08T15:42:48.535497+00:00", "meta": {"OBJECT_NAME": "STARLINK-35446", "OBJECT_ID": "2025-259L", "EPOCH": "2025-12-08T06:00:02.999808", "MEAN_MOTION": 15.40641317, "ECCENTRICITY": 9.031e-05, "INCLINATION": 43.0007, "RA_OF_ASC_NODE": 73.6747, "ARG_OF_PERICENTER": 264.7282, "MEAN_ANOMALY": 71.6566, "EPHEMERIS_TYPE": 0, "CLASSIFICATION_TYPE": "U", "NORAD_CAT_ID": 66432, "ELEMENT_SET_NO": 999, "REV_AT_EPOCH": 555, "BSTAR": 0.0016788503, "MEAN_MOTION_DOT": 0.00070337, "MEAN_MOTION_DDOT": 0}, "tle": {"line1": "1 66432U 25259L   25342.25003472  .00070337  00000+0  16789-2 0  9995", "line2": "2 66432  43.0007  73.6747 0000903 264.7282  71.6566 15.40641317  5552"}}, "geometry": {"type": "Point", "coordinates": [127.205197430167, 37.64345624036257]}}, {"type": "Feature", "properties": {"norad_id": 66433, "name": "STARLINK-35457", "group": "last-30-days", "lat": 41.41850375526418, "lon": 142.51897192641792, "alt_km": 438.2380889056367, "timestamp": "2025-12-08T15:42:48.535508+00:00", "meta": {"OBJECT_NAME": "STARLINK-35457", "OBJECT_ID": "2025-259M", "EPOCH": "2025-12-08T06:00:02.999808", "MEAN_MOTION": 15.40599824, "ECCENTRICITY": 0.00010964, "INCLINATION": 43.0008, "RA_OF_ASC_NODE": 73.6458, "ARG_OF_PERICENTER": 242.924, "MEAN_ANOMALY": 105.8923, "EPHEMERIS_TYPE": 0, "CLASSIFICATION_TYPE": "U", "NORAD_CAT_ID": 66433, "ELEMENT_SET_NO": 999, "REV_AT_EPOCH": 555, "BSTAR": 0.0025056698, "MEAN_MOTION_DOT": 0.0010547, "MEAN_MOTION_DDOT": 0}, "tle": {"line1": "1 66433U 25259M   25342.25003472  .00105470  00000+0  25057-2 0  9991", "line2": "2 66433  43.0008  73.6458 0001096 242.9240 105.8923 15.40599824  5551"}}, "geometry": {"type": "Point", "coordinates": [142.51897192641792, 41.41850375526418]}}, {"type": "Feature", "properties": {"norad_id": 66434, "name": "STARLINK-35389", "group": "last-30-days", "lat": 42.96414269780495, "lon": 159.33761576020086, "alt_km": 438.78204845722394, "timestamp": "2025-12-08T15:42:48.535518+00:00", "meta": {"OBJECT_NAME": "STARLINK-35389", "OBJECT_ID": "2025-259N", "EPOCH": "2025-12-08T06:00:02.999808", "MEAN_MOTION": 15.42165604, "ECCENTRICITY": 9.835e-05, "INCLINATION": 43.0009, "RA_OF_ASC_NODE": 73.6186, "ARG_OF_PERICENTER": 250.5867, "MEAN_ANOMALY": 109.842, "EPHEMERIS_TYPE": 0, "CLASSIFICATION_TYPE": "U", "NORAD_CAT_ID": 66434, "ELEMENT_SET_NO": 999, "REV_AT_EPOCH": 555, "BSTAR": -0.051066588, "MEAN_MOTION_DOT": -0.01996035, "MEAN_MOTION_DDOT": 0}, "tle": {"line1": "1 66434U 25259N   25342.25003472 -.01996035  00000+0 -51067-1 0  9999", "line2": "2 66434  43.0009  73.6186 0000983 250.5867 109.8420 15.42165604  5558"}}, "geometry": {"type": "Point", "coordinates": [159.33761576020086, 42.96414269780495]}}, {"type": "Feature", "properties": {"norad_id": 66435, "name": "STARLINK-35502", "group": "last-30-days", "lat": 42.05636677866823, "lon": 175.75275032939786, "alt_km": 434.6631813512222, "timestamp": "2025-12-08T15:42:48.535529+00:00", "meta": {"OBJECT_NAME": "STARLINK-35502", "OBJECT_ID": "2025-259P", "EPOCH": "2025-12-08T06:00:02.999808", "MEAN_MOTION": 15.4338624, "ECCENTRICITY": 0.00010561, "INCLINATION": 43.0002, "RA_OF_ASC_NODE": 73.5944, "ARG_OF_PERICENTER": 265.629, "MEAN_ANOMALY": 104.9499, "EPHEMERIS_TYPE": 0, "CLASSIFICATION_TYPE": "U", "NORAD_CAT_ID": 66435, "ELEMENT_SET_NO": 999, "REV_AT_EPOCH": 555, "BSTAR": -0.041929982, "MEAN_MOTION_DOT": -0.01707096, "MEAN_MOTION_DDOT": 0}, "tle": {"line1": "1 66435U 25259P   25342.25003472 -.01707096  00000+0 -41930-1 0  9995", "line2": "2 66435  43.0002  73.5944 0001056 265.6290 104.9499 15.43386240  5556"}}, "geometry": {"type": "Point", "coordinates": [175.75275032939786, 42.05636677866823]}}]}